[{"OBJECT_NAME":"OBJECT AS","OBJECT_ID":"2023-085AS","EPOCH":"2026-03-09T22:43:55.521696","MEAN_MOTION":15.33336233,"ECCENTRICITY":0.00083243,"INCLINATION":97.4812,"RA_OF_ASC_NODE":180.8852,"ARG_OF_PERICENTER":80.6036,"MEAN_ANOMALY":279.6147,"EPHEMERIS_TYPE":0,"CLASSIFICATION_TYPE":"U","NORAD_CAT_ID":57044,"ELEMENT_SET_NO":999,"REV_AT_EPOCH":15162,"BSTAR":0.00067677795,"MEAN_MOTION_DOT":0.00021782,"MEAN_MOTION_DDOT":0},{"OBJECT_NAME":"STARLINK-31037","OBJECT_ID":"2023-192F","EPOCH":"2026-03-09T06:48:14.961600","MEAN_MOTION":15.30193361,"ECCENTRICITY":0.00012531,"INCLINATION":53.1608,"RA_OF_ASC_NODE":64.6159,"ARG_OF_PERICENTER":93.7826,"MEAN_ANOMALY":266.3319,"EPHEMERIS_TYPE":0,"CLASSIFICATION_TYPE":"U","NORAD_CAT_ID":58536,"ELEMENT_SET_NO":999,"REV_AT_EPOCH":12592,"BSTAR":2.593482e-6,"MEAN_MOTION_DOT":-2.82e-6,"MEAN_MOTION_DDOT":0}]
